{
    "links": {
        "self": "http://www.neowsapp.com/rest/v1/neo/3781974?api_key=iIulBulltgU6a56xZRHN4H3l9WmuAYTsLGpBGhQ2"
    },
    "id": "3781974",
    "neo_reference_id": "3781974",
    "name": "(2017 ST19)",
    "designation": "2017 ST19",
    "nasa_jpl_url": "http://ssd.jpl.nasa.gov/sbdb.cgi?sstr=3781974",
    "absolute_magnitude_h": 22.7,
    "estimated_diameter": {
        "kilometers": {
            "estimated_diameter_min": 0.0766575574,
            "estimated_diameter_max": 0.1714115092
        },
        "meters": {
            "estimated_diameter_min": 76.6575573531,
            "estimated_diameter_max": 171.4115092306
        },
        "miles": {
            "estimated_diameter_min": 0.0476327831,
            "estimated_diameter_max": 0.1065101409
        },
        "feet": {
            "estimated_diameter_min": 251.5011804664,
            "estimated_diameter_max": 562.3737359442
        }
    },
    "is_potentially_hazardous_asteroid": false,
    "close_approach_data": [
        {
            "close_approach_date": "2018-01-12",
            "close_approach_date_full": "2018-Jan-12 19:54",
            "epoch_date_close_approach": 1515786840000,
            "relative_velocity": {
                "kilometers_per_second": "9.9626016994",
                "kilometers_per_hour": "35865.3661179538",
                "miles_per_hour": "22285.3437414586"
            },
            "miss_distance": {
                "astronomical": "0.2617871386",
                "lunar": "101.8351969154",
                "kilometers": "39162798.327954782",
                "miles": "24334634.4689967116"
            },
            "orbiting_body": "Earth"
        }
    ],
    "orbital_data": {
        "orbit_id": "3",
        "orbit_determination_date": "2017-12-28 06:24:15",
        "first_observation_date": "2017-09-25",
        "last_observation_date": "2017-09-30",
        "data_arc_in_days": 5,
        "observations_used": 19,
        "orbit_uncertainty": "9",
        "minimum_orbit_intersection": ".081405",
        "jupiter_tisserand_invariant": "4.172",
        "epoch_osculation": "2458023.5",
        "eccentricity": ".3649451439007863",
        "semi_major_axis": "1.6688042603074",
        "inclination": "1.722008324481357",
        "ascending_node_longitude": "158.5850479479436",
        "orbital_period": "787.4201543890563",
        "perihelion_distance": "1.059782249387271",
        "perihelion_argument": "288.0660584038794",
        "aphelion_distance": "2.27782627122753",
        "perihelion_time": "2458120.116550455316",
        "mean_anomaly": "315.8279554186666",
        "mean_motion": ".4571892121294722",
        "equinox": "J2000",
        "orbit_class": {
            "orbit_class_type": "AMO",
            "orbit_class_description": "Near-Earth asteroid orbits similar to that of 1221 Amor",
            "orbit_class_range": "1.017 AU < q (perihelion) < 1.3 AU"
        }
    },
    "is_sentry_object": false
}